{"fetched_at":"2026-07-16T17:46:05.603Z","source":"https://celestrak.org/NORAD/elements/gp.php?GROUP=oneweb&FORMAT=JSON","constellation":"oneweb","records":[{"OBJECT_NAME":"ONEWEB-0311","OBJECT_ID":"2021-075Y","EPOCH":"2026-07-15T21:00:50.772096","CLASSIFICATION_TYPE":"U","MEAN_MOTION":13.17647588,"ECCENTRICITY":0.0001736,"INCLINATION":87.9143,"RA_OF_ASC_NODE":0.1557,"ARG_OF_PERICENTER":79.071,"MEAN_ANOMALY":281.0617,"EPHEMERIS_TYPE":0,"NORAD_CAT_ID":49097,"ELEMENT_SET_NO":999,"REV_AT_EPOCH":23740,"BSTAR":0.00012341,"MEAN_MOTION_DOT":6.1e-7,"MEAN_MOTION_DDOT":0},{"OBJECT_NAME":"ONEWEB-0312","OBJECT_ID":"2021-075Z","EPOCH":"2026-07-15T23:12:04.316832","CLASSIFICATION_TYPE":"U","MEAN_MOTION":13.17648415,"ECCENTRICITY":0.00020478,"INCLINATION":87.9142,"RA_OF_ASC_NODE":0.1479,"ARG_OF_PERICENTER":83.9194,"MEAN_ANOMALY":276.2171,"EPHEMERIS_TYPE":0,"NORAD_CAT_ID":49098,"ELEMENT_SET_NO":999,"REV_AT_EPOCH":23739,"BSTAR":0.000012226475,"MEAN_MOTION_DOT":1.8e-7,"MEAN_MOTION_DDOT":0},{"OBJECT_NAME":"ONEWEB-0313","OBJECT_ID":"2021-075AA","EPOCH":"2026-07-16T04:47:11.438880","CLASSIFICATION_TYPE":"U","MEAN_MOTION":13.17649681,"ECCENTRICITY":0.00018334,"INCLINATION":87.9143,"RA_OF_ASC_NODE":0.1064,"ARG_OF_PERICENTER":89.4116,"MEAN_ANOMALY":270.7226,"EPHEMERIS_TYPE":0,"NORAD_CAT_ID":49099,"ELEMENT_SET_NO":999,"REV_AT_EPOCH":23741,"BSTAR":-0.000041595455,"MEAN_MOTION_DOT":-3e-8,"MEAN_MOTION_DDOT":0},{"OBJECT_NAME":"ONEWEB-0314","OBJECT_ID":"2021-075AB","EPOCH":"2026-07-16T03:58:47.167680","CLASSIFICATION_TYPE":"U","MEAN_MOTION":13.17651071,"ECCENTRICITY":0.00020605,"INCLINATION":87.9155,"RA_OF_ASC_NODE":0.089,"ARG_OF_PERICENTER":82.7095,"MEAN_ANOMALY":277.4271,"EPHEMERIS_TYPE":0,"NORAD_CAT_ID":49100,"ELEMENT_SET_NO":999,"REV_AT_EPOCH":23738,"BSTAR":-0.00011184703,"MEAN_MOTION_DOT":-3.1e-7,"MEAN_MOTION_DDOT":0},{"OBJECT_NAME":"ONEWEB-0315","OBJECT_ID":"2021-075AC","EPOCH":"2026-07-15T20:58:06.522240","CLASSIFICATION_TYPE":"U","MEAN_MOTION":13.12441796,"ECCENTRICITY":0.0001581,"INCLINATION":87.8972,"RA_OF_ASC_NODE":344.9414,"ARG_OF_PERICENTER":85.7475,"MEAN_ANOMALY":274.3834,"EPHEMERIS_TYPE":0,"NORAD_CAT_ID":49101,"ELEMENT_SET_NO":999,"REV_AT_EPOCH":23893,"BSTAR":0.00073205,"MEAN_MOTION_DOT":0.00000276,"MEAN_MOTION_DDOT":0},{"OBJECT_NAME":"ONEWEB-0316","OBJECT_ID":"2021-075AD","EPOCH":"2026-07-15T21:59:14.863200","CLASSIFICATION_TYPE":"U","MEAN_MOTION":13.18686511,"ECCENTRICITY":0.0001952,"INCLINATION":87.9194,"RA_OF_ASC_NODE":329.7427,"ARG_OF_PERICENTER":99.0052,"MEAN_ANOMALY":261.1301,"EPHEMERIS_TYPE":0,"NORAD_CAT_ID":49102,"ELEMENT_SET_NO":999,"REV_AT_EPOCH":24099,"BSTAR":-0.000043766,"MEAN_MOTION_DOT":-4e-8,"MEAN_MOTION_DDOT":0},{"OBJECT_NAME":"ONEWEB-0317","OBJECT_ID":"2021-075AE","EPOCH":"2026-07-15T21:02:59.221248","CLASSIFICATION_TYPE":"U","MEAN_MOTION":13.12441847,"ECCENTRICITY":0.0002466,"INCLINATION":87.8966,"RA_OF_ASC_NODE":344.9644,"ARG_OF_PERICENTER":107.9432,"MEAN_ANOMALY":252.1965,"EPHEMERIS_TYPE":0,"NORAD_CAT_ID":49103,"ELEMENT_SET_NO":999,"REV_AT_EPOCH":23895,"BSTAR":0.0005674,"MEAN_MOTION_DOT":0.00000217,"MEAN_MOTION_DDOT":0},{"OBJECT_NAME":"ONEWEB-0318","OBJECT_ID":"2021-075AF","EPOCH":"2026-07-15T20:04:55.930944","CLASSIFICATION_TYPE":"U","MEAN_MOTION":13.18686628,"ECCENTRICITY":0.00017969,"INCLINATION":87.9197,"RA_OF_ASC_NODE":329.7607,"ARG_OF_PERICENTER":92.6146,"MEAN_ANOMALY":267.5192,"EPHEMERIS_TYPE":0,"NORAD_CAT_ID":49104,"ELEMENT_SET_NO":999,"REV_AT_EPOCH":24094,"BSTAR":-0.000059189536,"MEAN_MOTION_DOT":-1e-7,"MEAN_MOTION_DDOT":0},{"OBJECT_NAME":"ONEWEB-0319","OBJECT_ID":"2021-075AG","EPOCH":"2026-07-16T04:20:40.021728","CLASSIFICATION_TYPE":"U","MEAN_MOTION":13.1764738,"ECCENTRICITY":0.00015229,"INCLINATION":87.9144,"RA_OF_ASC_NODE":0.1,"ARG_OF_PERICENTER":80.6454,"MEAN_ANOMALY":279.485,"EPHEMERIS_TYPE":0,"NORAD_CAT_ID":49105,"ELEMENT_SET_NO":999,"REV_AT_EPOCH":23742,"BSTAR":-0.00020505469,"MEAN_MOTION_DOT":-6.7e-7,"MEAN_MOTION_DDOT":0},{"OBJECT_NAME":"ONEWEB-0323","OBJECT_ID":"2021-075AH","EPOCH":"2026-07-16T03:55:16.996224","CLASSIFICATION_TYPE":"U","MEAN_MOTION":13.12442237,"ECCENTRICITY":0.00016428,"INCLINATION":87.8972,"RA_OF_ASC_NODE":344.8893,"ARG_OF_PERICENTER":79.1732,"MEAN_ANOMALY":280.9582,"EPHEMERIS_TYPE":0,"NORAD_CAT_ID":49106,"ELEMENT_SET_NO":999,"REV_AT_EPOCH":23835,"BSTAR":0.00060401657,"MEAN_MOTION_DOT":0.0000023,"MEAN_MOTION_DDOT":0},{"OBJECT_NAME":"ONEWEB-0329","OBJECT_ID":"2021-075AJ","EPOCH":"2026-07-15T23:04:45.492096","CLASSIFICATION_TYPE":"U","MEAN_MOTION":13.17648807,"ECCENTRICITY":0.00019154,"INCLINATION":87.9146,"RA_OF_ASC_NODE":0.1442,"ARG_OF_PERICENTER":88.0238,"MEAN_ANOMALY":272.1113,"EPHEMERIS_TYPE":0,"NORAD_CAT_ID":49107,"ELEMENT_SET_NO":999,"REV_AT_EPOCH":23737,"BSTAR":-0.00055912512,"MEAN_MOTION_DOT":-0.00000204,"MEAN_MOTION_DDOT":0},{"OBJECT_NAME":"ONEWEB-0330","OBJECT_ID":"2021-075AK","EPOCH":"2026-07-16T04:37:51.333600","CLASSIFICATION_TYPE":"U","MEAN_MOTION":13.17646428,"ECCENTRICITY":0.00020158,"INCLINATION":87.9147,"RA_OF_ASC_NODE":0.1095,"ARG_OF_PERICENTER":89.8385,"MEAN_ANOMALY":270.2977,"EPHEMERIS_TYPE":0,"NORAD_CAT_ID":49108,"ELEMENT_SET_NO":999,"REV_AT_EPOCH":23744,"BSTAR":-0.000072716632,"MEAN_MOTION_DOT":-1.5e-7,"MEAN_MOTION_DDOT":0},{"OBJECT_NAME":"ONEWEB-0292","OBJECT_ID":"2021-083A","EPOCH":"2026-07-15T21:13:41.307168","CLASSIFICATION_TYPE":"U","MEAN_MOTION":13.13469655,"ECCENTRICITY":0.0001813,"INCLINATION":87.898,"RA_OF_ASC_NODE":314.5267,"ARG_OF_PERICENTER":96.8654,"MEAN_ANOMALY":263.2681,"EPHEMERIS_TYPE":0,"NORAD_CAT_ID":49186,"ELEMENT_SET_NO":999,"REV_AT_EPOCH":23469,"BSTAR":-0.00065227,"MEAN_MOTION_DOT":-0.00000225,"MEAN_MOTION_DDOT":0},{"OBJECT_NAME":"ONEWEB-0303","OBJECT_ID":"2021-083B","EPOCH":"2026-07-15T21:49:19.458336","CLASSIFICATION_TYPE":"U","MEAN_MOTION":13.18684544,"ECCENTRICITY":0.0001809,"INCLINATION":87.9194,"RA_OF_ASC_NODE":329.7446,"ARG_OF_PERICENTER":93.987,"MEAN_ANOMALY":266.1469,"EPHEMERIS_TYPE":0,"NORAD_CAT_ID":49187,"ELEMENT_SET_NO":999,"REV_AT_EPOCH":23376,"BSTAR":-0.000085862,"MEAN_MOTION_DOT":-2.1e-7,"MEAN_MOTION_DDOT":0},{"OBJECT_NAME":"ONEWEB-0306","OBJECT_ID":"2021-083C","EPOCH":"2026-07-16T03:02:33.494784","CLASSIFICATION_TYPE":"U","MEAN_MOTION":13.18684324,"ECCENTRICITY":0.00021139,"INCLINATION":87.9199,"RA_OF_ASC_NODE":329.6906,"ARG_OF_PERICENTER":101.3738,"MEAN_ANOMALY":258.7631,"EPHEMERIS_TYPE":0,"NORAD_CAT_ID":49188,"ELEMENT_SET_NO":999,"REV_AT_EPOCH":23383,"BSTAR":-0.00028164675,"MEAN_MOTION_DOT":-9.8e-7,"MEAN_MOTION_DDOT":0},{"OBJECT_NAME":"ONEWEB-0307","OBJECT_ID":"2021-083D","EPOCH":"2026-07-16T06:13:37.722432","CLASSIFICATION_TYPE":"U","MEAN_MOTION":13.13468291,"ECCENTRICITY":0.00019059,"INCLINATION":87.898,"RA_OF_ASC_NODE":314.4498,"ARG_OF_PERICENTER":96.3769,"MEAN_ANOMALY":263.7577,"EPHEMERIS_TYPE":0,"NORAD_CAT_ID":49189,"ELEMENT_SET_NO":999,"REV_AT_EPOCH":23474,"BSTAR":-0.000029672044,"MEAN_MOTION_DOT":2e-8,"MEAN_MOTION_DDOT":0}]}
